2026-027H               
1 67753U 26027H   26050.50736173  .00326994  23201-5  61154-3 0  9996
2 67753  97.5138 180.2319 0264193 312.6588  45.2670 15.60692722  1134
2026-027J               
1 67754U 26027J   26050.42971594  .00720657  23582-5  12218-2 0  9998
2 67754  97.5110 180.1825 0242369 312.3064  45.7877 15.66587306  1066
2026-028A               
1 67756U 26028A   26050.26536389 -.00000327  00000+0  00000+0 0  9995
2 67756   0.5123 288.1648 0045369  50.2845  21.3366  1.00850044    72
CREW DRAGON 12          
1 67796U 26031A   26049.79608032  .00009878  00000+0  18896-3 0  9999
2 67796  51.6323 165.7431 0010935 112.1599 248.0551 15.48691264   821
