CCSDS_OMM_VERS = 2.0
CREATION_DATE  = 
ORIGINATOR     = 

OBJECT_NAME    = 2026-027H
OBJECT_ID      = 2026-027H
CENTER_NAME    = EARTH
REF_FRAME      = TEME
TIME_SYSTEM    = UTC
MEAN_ELEMENT_THEORY = SGP/SGP4

EPOCH          = 2026-02-19T12:10:36.053472
MEAN_MOTION    = 15.60692722
ECCENTRICITY   = .0264193
INCLINATION    = 97.5138
RA_OF_ASC_NODE = 180.2319
ARG_OF_PERICENTER = 312.6588
MEAN_ANOMALY   = 45.2670

EPHEMERIS_TYPE = 0
CLASSIFICATION_TYPE = U
NORAD_CAT_ID   = 67753
ELEMENT_SET_NO = 999
REV_AT_EPOCH   = 113
BSTAR          = .61154E-3
MEAN_MOTION_DOT = .326994E-2
MEAN_MOTION_DDOT = .23201E-5

CCSDS_OMM_VERS = 2.0
CREATION_DATE  = 
ORIGINATOR     = 

OBJECT_NAME    = 2026-027J
OBJECT_ID      = 2026-027J
CENTER_NAME    = EARTH
REF_FRAME      = TEME
TIME_SYSTEM    = UTC
MEAN_ELEMENT_THEORY = SGP/SGP4

EPOCH          = 2026-02-19T10:18:47.457216
MEAN_MOTION    = 15.66587306
ECCENTRICITY   = .0242369
INCLINATION    = 97.5110
RA_OF_ASC_NODE = 180.1825
ARG_OF_PERICENTER = 312.3064
MEAN_ANOMALY   = 45.7877

EPHEMERIS_TYPE = 0
CLASSIFICATION_TYPE = U
NORAD_CAT_ID   = 67754
ELEMENT_SET_NO = 999
REV_AT_EPOCH   = 106
BSTAR          = .12218E-2
MEAN_MOTION_DOT = .720657E-2
MEAN_MOTION_DDOT = .23582E-5

CCSDS_OMM_VERS = 2.0
CREATION_DATE  = 
ORIGINATOR     = 

OBJECT_NAME    = 2026-028A
OBJECT_ID      = 2026-028A
CENTER_NAME    = EARTH
REF_FRAME      = TEME
TIME_SYSTEM    = UTC
MEAN_ELEMENT_THEORY = SGP/SGP4

EPOCH          = 2026-02-19T06:22:07.440096
MEAN_MOTION    = 1.00850044
ECCENTRICITY   = .0045369
INCLINATION    = 0.5123
RA_OF_ASC_NODE = 288.1648
ARG_OF_PERICENTER = 50.2845
MEAN_ANOMALY   = 21.3366

EPHEMERIS_TYPE = 0
CLASSIFICATION_TYPE = U
NORAD_CAT_ID   = 67756
ELEMENT_SET_NO = 999
REV_AT_EPOCH   = 7
BSTAR          = 0
MEAN_MOTION_DOT = -.327E-5
MEAN_MOTION_DDOT = 0

CCSDS_OMM_VERS = 2.0
CREATION_DATE  = 
ORIGINATOR     = 

OBJECT_NAME    = CREW DRAGON 12
OBJECT_ID      = 2026-031A
CENTER_NAME    = EARTH
REF_FRAME      = TEME
TIME_SYSTEM    = UTC
MEAN_ELEMENT_THEORY = SGP/SGP4

EPOCH          = 2026-02-18T19:06:21.339648
MEAN_MOTION    = 15.48691264
ECCENTRICITY   = .00109355
INCLINATION    = 51.6323
RA_OF_ASC_NODE = 165.7431
ARG_OF_PERICENTER = 112.1599
MEAN_ANOMALY   = 248.0551

EPHEMERIS_TYPE = 0
CLASSIFICATION_TYPE = U
NORAD_CAT_ID   = 67796
ELEMENT_SET_NO = 999
REV_AT_EPOCH   = 82
BSTAR          = .18896108E-3
MEAN_MOTION_DOT = .9878E-4
MEAN_MOTION_DDOT = 0

